{"type":"FeatureCollection","crs":{"type":"name","properties":{"name":"EPSG:4326"}},"features":[{"type":"Feature","id":1,"geometry":{"type":"Polygon","coordinates":[[[-91.5103183864092,36.5229638538664],[-91.5303174031135,36.4967380724763],[-91.5355929751778,36.4989494949777],[-91.6329452062394,36.5065446233185],[-91.6955025430688,36.5287109596705],[-91.7271443537696,36.5455099876857],[-91.8253220608231,36.620932589959],[-91.8543351342316,36.6398187630221],[-91.8941102437874,36.6523586168752],[-91.911767687371,36.6596765199307],[-91.9274835539248,36.6791382764079],[-91.9342042541145,36.707104027964],[-91.9498085414596,36.735863555921],[-91.9505123403049,36.7494646169772],[-91.9387774974133,36.7622398254887],[-91.9342226822151,36.7700697707795],[-91.9243107772012,36.7792822257569],[-91.9064995132891,36.7961477189458],[-91.8796554133756,36.8137427847131],[-91.8771698176353,36.8174129231214],[-91.873894139392,36.8220349462247],[-91.8685600277861,36.8202643559447],[-91.8607341434192,36.8146878493358],[-91.8581279150352,36.8127809144065],[-91.8522958110986,36.8082338532252],[-91.8478857806043,36.807051890017],[-91.8470890697735,36.8053097683346],[-91.8468951636095,36.805253914185],[-91.8467502486641,36.8051167966496],[-91.8466927997369,36.8050229943225],[-91.8465536742662,36.8047762181191],[-91.8464494209803,36.8046082558697],[-91.846385897685,36.8044931589685],[-91.8463167298557,36.8043589271591],[-91.8462245541571,36.8041767717966],[-91.8461674633911,36.8040283469889],[-91.8461411007849,36.8038086698872],[-91.8461908412774,36.8036339040099],[-91.8462469490861,36.8034682622191],[-91.8464703330564,36.8028121652945],[-91.8465016439902,36.8026252524233],[-91.846523093025,36.8024972102925],[-91.8465576307494,36.8022910329532],[-91.8465810043922,36.8021515003303],[-91.8465876030661,36.8021121084123],[-91.8465733585681,36.8019717226958],[-91.8465537942222,36.8017789068339],[-91.8464945843415,36.8011953603557],[-91.8464437023043,36.8009771126588],[-91.8464036626151,36.8008053700719],[-91.8463488762477,36.8005703732314],[-91.8463066540453,36.8004126497413],[-91.8462795149309,36.8002728576287],[-91.8462605204864,36.8001913832465],[-91.8462304579555,36.8001327103228],[-91.8461466588687,36.7999691594722],[-91.8460347546461,36.7997507546198],[-91.8458962586976,36.7994804485459],[-91.8452768341217,36.7982714771456],[-91.8451882418341,36.7980985624966],[-91.8450578203897,36.7978440040942],[-91.8449120811157,36.7975595460231],[-91.8447727427234,36.7974209028012],[-91.8446602757245,36.7973089964314],[-91.8445302571451,36.7971796254408],[-91.8443771423641,36.7970272725531],[-91.8435829789438,36.796237048165],[-91.838124285857,36.7908048540861],[-91.8319178691049,36.7839974637517],[-91.8309798196704,36.7829684508064],[-91.829552608134,36.7815657307145],[-91.8257218050092,36.7779134568259],[-91.8230261670577,36.7762450936545],[-91.8218842475638,36.7755383058929],[-91.8207059507756,36.7748089776339],[-91.82001284551,36.7743799557029],[-91.8183911345036,36.7733761063636],[-91.8165713586336,36.7727361690569],[-91.8067434363833,36.7692794485792],[-91.8040194626074,36.7690889789333],[-91.7874617993074,36.7679298501159],[-91.7718905202899,36.7668376427133],[-91.7592046876619,36.7658042638095],[-91.7453171305529,36.7646714136031],[-91.7412185714772,36.7647284531572],[-91.7289502529882,36.76489834614],[-91.7163463524845,36.7692632480472],[-91.7005612538634,36.7747272327533],[-91.6915932982714,36.7778301826642],[-91.6879253605692,36.7799201184963],[-91.6828925878031,36.782787342034],[-91.6818708868066,36.7833693628811],[-91.6800270816906,36.7834402604538],[-91.6767402073993,36.7831890887576],[-91.6722329747619,36.7814932223049],[-91.6659080231513,36.7769148387325],[-91.6611225471461,36.7737489403707],[-91.649775948159,36.7614572980033],[-91.6375187118109,36.7505851450056],[-91.6270553056001,36.739016958737],[-91.6130017221321,36.7295525528193],[-91.5793370362494,36.7234314781506],[-91.5509823062052,36.7187966693381],[-91.5084155305325,36.7139778637194],[-91.4792370923676,36.7064537570622],[-91.4654656457032,36.6990763031074],[-91.4657278995835,36.6948225510153],[-91.4663378825434,36.6848237030942],[-91.4711324608341,36.6669981890076],[-91.4750651819125,36.647730394832],[-91.4762629080283,36.632004903253],[-91.4767274949746,36.6083995388719],[-91.4798244251129,36.5862586864807],[-91.490208251818,36.5541931459594],[-91.5103183864092,36.5229638538664]]]},"properties":{"FID":1,"Name":"361.081683995786","Shape__Area":1403217330.453125,"Shape__Length":159456.13568926154}}]}